     2.100          NAVIGATION                              RINEX VERSION / TYPE
fic2rin                                 08/27/2013 00:21:42 PGM / RUN BY / DATE
                                                            END OF HEADER
32 13  8 26 12  0  0.0 -.552784185857D-03  .227373675443D-11  .000000000000D+00
     .570000000000D+02  .737812500000D+02  .446340020425D-08 -.254013689700D+01
     .385753810406D-05  .115896244533D-01  .103972852230D-04  .515361974335D+04
     .129600000000D+06 -.193715095520D-06 -.196105065441D+01  .502914190292D-07
     .948646233461D+00  .173281250000D+03 -.311830362975D+00 -.793390190743D-08
     .121076471892D-09  .100000000000D+01  .175500000000D+04  .000000000000D+00
     .240000000000D+01  .000000000000D+00 -.279396772385D-08  .570000000000D+02
     .122406000000D+06  .400000000000D+01
 3 13  8 26 11 59 44.0  .251126941293D-03  .488853402203D-11  .000000000000D+00
     .590000000000D+02  .884375000000D+01  .530414951055D-08 -.149510466742D+01
     .687316060066D-06  .166796827689D-01  .596418976784D-05  .515371401024D+04
     .129584000000D+06  .262632966042D-06  .199676860977D+01  .396743416786D-06
     .935239164191D+00  .249187500000D+03  .132402750160D+01 -.844320883640D-08
     .182150444440D-09  .100000000000D+01  .175500000000D+04  .000000000000D+00
     .240000000000D+01  .000000000000D+00 -.465661287308D-08  .590000000000D+02
     .126486000000D+06  .400000000000D+01
13 13  8 26 11 59 44.0  .862567685544D-04 -.375166564481D-11  .000000000000D+00
     .150000000000D+02  .476562500000D+02  .432803742299D-08 -.721196275783D+00
     .217556953430D-05  .506551668514D-02  .488199293613D-05  .515370959473D+04
     .129584000000D+06 -.540167093277D-07 -.897549376660D+00 -.521540641785D-07
     .980360065006D+00  .297906250000D+03  .219658652019D+01 -.820427031222D-08
     .183936233111D-09  .100000000000D+01  .175500000000D+04  .000000000000D+00
     .240000000000D+01  .000000000000D+00 -.107102096081D-07  .150000000000D+02
     .127266000000D+06  .400000000000D+01
 3 13  8 26 13 59 44.0  .251162331551D-03  .488853402203D-11  .000000000000D+00
     .640000000000D+02  .734375000000D+01  .553594488004D-08 -.444962380138D+00
     .558793544769D-06  .166794466786D-01  .622123479843D-05  .515371318436D+04
     .136784000000D+06 -.139698386192D-06  .199670529614D+01  .163912773132D-06
     .935238902329D+00  .246937500000D+03  .132404872854D+01 -.887786979891D-08
     .253939149013D-09  .100000000000D+01  .175500000000D+04  .000000000000D+00
     .240000000000D+01  .000000000000D+00 -.465661287308D-08  .640000000000D+02
     .129606000000D+06  .400000000000D+01
13 13  8 26 13 59 44.0  .862292945385D-04 -.375166564481D-11  .000000000000D+00
     .160000000000D+02  .501250000000D+02  .428089260207D-08  .328901101377D+00
     .252202153206D-05  .506481411867D-02  .435672700405D-05  .515370817375D+04
     .136784000000D+06  .745058059692D-08 -.897608281056D+00 -.800937414169D-07
     .980361147565D+00  .303250000000D+03  .219664703379D+01 -.822712840721D-08
     .137505727665D-09  .100000000000D+01  .175500000000D+04  .000000000000D+00
     .240000000000D+01  .000000000000D+00 -.107102096081D-07  .160000000000D+02
     .129606000000D+06  .400000000000D+01
 1 13  8 26 14  0  0.0  .676298514009D-04  .443378667114D-11  .000000000000D+00
     .310000000000D+02 -.366250000000D+02  .453876048616D-08 -.140056804552D+01
    -.186264514923D-05  .225269119255D-02  .828318297863D-05  .515368834877D+04
     .136800000000D+06  .372529029846D-08 -.309194073414D+01 -.540167093277D-07
     .960783381581D+00  .221656250000D+03  .341542036060D+00 -.796747473445D-08
    -.344657213499D-09  .100000000000D+01  .175500000000D+04  .000000000000D+00
     .240000000000D+01  .000000000000D+00  .838190317154D-08  .310000000000D+02
     .129606000000D+06  .400000000000D+01
 2 13  8 26 14  0  0.0  .448362436146D-03  .181898940355D-11  .000000000000D+00
     .250000000000D+02 -.334062500000D+02  .526379068658D-08 -.603930970092D+00
    -.175088644028D-05  .125504406169D-01  .751577317715D-05  .515371051979D+04
     .136800000000D+06  .206753611565D-06 -.311556183454D+01  .188127160072D-06
     .939289682991D+00  .225156250000D+03 -.256513548106D+01 -.852464079979D-08
    -.350371737246D-09  .100000000000D+01  .175500000000D+04  .000000000000D+00
     .240000000000D+01  .000000000000D+00 -.172294676304D-07  .250000000000D+02
     .129606000000D+06  .400000000000D+01
 4 13  8 26 14  0  0.0  .310392118990D-03  .102318153949D-10  .000000000000D+00
     .250000000000D+02 -.419687500000D+02  .509878381338D-08  .264614281566D+01
    -.231154263020D-05  .104840777349D-01  .782869756222D-05  .515359215736D+04
     .136800000000D+06  .894069671631D-07 -.309922659575D+01 -.100582838058D-06
     .938324279944D+00  .215593750000D+03  .100985168303D+01 -.814033907780D-08
    -.339299847486D-09  .100000000000D+01  .175500000000D+04  .000000000000D+00
     .240000000000D+01  .000000000000D+00 -.605359673500D-08  .250000000000D+02
     .129606000000D+06  .400000000000D+01
 5 13  8 26 14  0  0.0 -.399642158300D-03 -.113686837722D-12  .000000000000D+00
     .430000000000D+02  .447500000000D+02  .456304721209D-08  .167272764263D+01
     .245869159698D-05  .318780343514D-02  .105910003185D-04  .515369479370D+04
     .136800000000D+06 -.596046447754D-07 -.205000294642D+01 -.242143869400D-07
     .948175450331D+00  .169437500000D+03  .257187477599D+00 -.803783480808D-08
    -.689314426998D-10  .100000000000D+01  .175500000000D+04  .000000000000D+00
     .240000000000D+01  .000000000000D+00 -.977888703346D-08  .430000000000D+02
     .129606000000D+06  .400000000000D+01
 6 13  8 26 14  0  0.0  .218385830522D-04  .194404492504D-10  .000000000000D+00
     .230000000000D+02  .456250000000D+01  .528486299290D-08  .137233032092D+01
     .398606061935D-06  .811115175020D-02  .548921525478D-05  .515367597961D+04
     .136800000000D+06  .782310962677D-07  .207688393592D+01  .109896063805D-06
     .941855029803D+00  .258750000000D+03 -.240052771641D+00 -.845713798803D-08
     .639312344211D-10  .100000000000D+01  .175500000000D+04  .000000000000D+00
     .240000000000D+01  .000000000000D+00 -.512227416039D-08  .230000000000D+02
     .129606000000D+06  .400000000000D+01
 7 13  8 26 14  0  0.0  .251641497016D-03  .420641299570D-11  .000000000000D+00
     .105000000000D+03 -.539375000000D+02  .430303638159D-08 -.199106104366D+01
    -.301748514175D-05  .685487908777D-02  .633299350739D-05  .515367355919D+04
     .136800000000D+06  .409781932831D-07  .685433208416D-01 -.763684511185D-07
     .975332837728D+00  .266562500000D+03 -.289570351907D+01 -.806140721854D-08
    -.105361531588D-09  .100000000000D+01  .175500000000D+04  .000000000000D+00
     .340000000000D+01  .000000000000D+00 -.107102096081D-07  .105000000000D+03
     .129606000000D+06  .400000000000D+01
 8 13  8 26 14  0  0.0  .815978273749D-05  .227373675443D-12  .000000000000D+00
     .143000000000D+03 -.583750000000D+02  .377051419991D-08 -.256061377244D+01
    -.309385359287D-05  .133611641359D-01  .726617872715D-05  .515370149994D+04
     .136800000000D+06 -.100582838058D-06  .161767298532D+00 -.203028321266D-06
     .998208565268D+00  .263687500000D+03 -.284689244251D+01 -.767139097280D-08
    -.127862468842D-09  .100000000000D+01  .175500000000D+04  .000000000000D+00
     .340000000000D+01  .000000000000D+00 -.372529029846D-08  .143000000000D+03
     .129606000000D+06  .400000000000D+01
 9 13  8 26 14  0  0.0  .264012254775D-03  .272848410532D-11  .000000000000D+00
     .600000000000D+02 -.442812500000D+02  .424446251319D-08 -.813725736040D+00
    -.229664146900D-05  .169329154305D-01  .679306685925D-05  .515372241020D+04
     .136800000000D+06 -.217929482460D-06  .459815764829D-01  .104308128357D-06
     .983935970757D+00  .271343750000D+03  .171856418688D+01 -.828820237975D-08
    -.660741808263D-10  .100000000000D+01  .175500000000D+04  .000000000000D+00
     .240000000000D+01  .000000000000D+00 -.558793544769D-08  .600000000000D+02
     .129606000000D+06  .400000000000D+01
10 13  8 26 14  0  0.0 -.921119935811D-04 -.147792889038D-11  .000000000000D+00
     .720000000000D+02  .549062500000D+02  .473948313278D-08  .188489473505D+01
     .274553894997D-05  .126591166481D-01  .107698142529D-04  .515366127396D+04
     .136800000000D+06 -.279396772385D-06 -.203111006748D+01 -.122934579849D-06
     .942982727519D+00  .163156250000D+03  .812253946826D+00 -.816462580372D-08
    -.325013538118D-10  .100000000000D+01  .175500000000D+04  .000000000000D+00
     .240000000000D+01  .000000000000D+00 -.232830643654D-08  .720000000000D+02
     .129606000000D+06  .400000000000D+01
11 13  8 26 14  0  0.0 -.413881149143D-03 -.352429196937D-11  .000000000000D+00
     .380000000000D+02 -.384375000000D+02  .629133348786D-08 -.176783083661D+01
    -.188685953617D-05  .144438087009D-01  .567734241486D-05  .515368385887D+04
     .136800000000D+06  .316649675369D-06  .288770295029D+01  .633299350739D-07
     .889632438522D+00  .228375000000D+03  .120138374833D+01 -.876215069303D-08
    -.231795369493D-09  .100000000000D+01  .175500000000D+04  .000000000000D+00
     .240000000000D+01  .000000000000D+00 -.116415321827D-07  .380000000000D+02
     .129606000000D+06  .400000000000D+01
12 13  8 26 14  0  0.0  .152727123350D-03  .216004991671D-11  .000000000000D+00
     .340000000000D+02 -.233750000000D+02  .397195116199D-08 -.229967234172D+01
    -.121258199215D-05  .454757106490D-02  .893697142601D-05  .515378123665D+04
     .136800000000D+06  .260770320892D-07  .112798981685D+01 -.152736902237D-06
     .984881355233D+00  .218375000000D+03  .331616953200D+00 -.774532262378D-08
     .224295057075D-09  .100000000000D+01  .175500000000D+04  .000000000000D+00
     .240000000000D+01  .000000000000D+00 -.116415321827D-07  .340000000000D+02
     .129606000000D+06  .400000000000D+01
